[{"OBJECT_NAME":"STARLINK-5016","OBJECT_ID":"2023-046BD","EPOCH":"2026-03-09T22:00:01.999584","MEAN_MOTION":15.08760326,"ECCENTRICITY":0.00018534,"INCLINATION":42.9998,"RA_OF_ASC_NODE":144.2506,"ARG_OF_PERICENTER":263.7344,"MEAN_ANOMALY":28.7822,"EPHEMERIS_TYPE":0,"CLASSIFICATION_TYPE":"U","NORAD_CAT_ID":56143,"ELEMENT_SET_NO":999,"REV_AT_EPOCH":577,"BSTAR":4.0797759e-5,"MEAN_MOTION_DOT":4.36e-6,"MEAN_MOTION_DDOT":0},{"OBJECT_NAME":"COSMOS 2251 DEB","OBJECT_ID":"1993-036EU","EPOCH":"2026-03-09T14:44:02.306976","MEAN_MOTION":15.10275873,"ECCENTRICITY":0.0002082,"INCLINATION":74.0027,"RA_OF_ASC_NODE":262.4484,"ARG_OF_PERICENTER":258.1067,"MEAN_ANOMALY":101.9891,"EPHEMERIS_TYPE":0,"CLASSIFICATION_TYPE":"U","NORAD_CAT_ID":33939,"ELEMENT_SET_NO":999,"REV_AT_EPOCH":90059,"BSTAR":0.0040153,"MEAN_MOTION_DOT":0.00066338,"MEAN_MOTION_DDOT":0}]
